OBJECT_NAME,OBJECT_ID,EPOCH,MEAN_MOTION,ECCENTRICITY,INCLINATION,RA_OF_ASC_NODE,ARG_OF_PERICENTER,MEAN_ANOMALY,EPHEMERIS_TYPE,CLASSIFICATION_TYPE,NORAD_CAT_ID,ELEMENT_SET_NO,REV_AT_EPOCH,BSTAR,MEAN_MOTION_DOT,MEAN_MOTION_DDOT
DONGPO 02,2022-098J,2026-05-09T21:30:31.513248,15.68092828,.0002656,97.5467,258.0007,129.1022,231.0475,0,U,53452,999,20878,.55759E-3,.6212E-3,0
DONGPO 01,2022-098K,2026-05-09T20:13:01.502400,15.66539478,.0000819,97.5533,258.5466,148.1143,212.0166,0,U,53453,999,20874,.5468E-3,.57172E-3,0
STARLINK-4400,2022-099D,2026-05-09T19:57:59.274720,15.05658963,.0000232,97.5129,250.2710,214.6120,145.5092,0,U,53468,999,20517,-.12882E-3,-.1918E-4,0
STARLINK-4621,2022-105AE,2026-05-09T15:14:52.755648,15.05659322,.0002662,97.5150,10.0898,73.4388,286.7131,0,U,53676,999,20240,-.15676E-3,-.2321E-4,0
SHERPA-LTC2,2022-107BG,2026-05-09T10:00:47.351808,14.69151322,.0397915,53.2342,24.3993,117.7277,246.4651,0,U,53754,999,19684,.26738E-3,.5196E-4,0
CENTISPACE-1 S3,2022-108A,2026-05-09T20:02:03.573312,14.61217066,.0008326,53.5325,213.8443,237.3020,122.7153,0,U,53757,999,19592,.88731E-4,.252E-5,0
CENTISPACE-1 S4,2022-108B,2026-05-09T18:26:32.455680,14.61889288,.000813,53.5300,211.8172,222.7642,137.2701,0,U,53758,999,19594,.1147E-3,.388E-5,0
BLUEWALKER-3,2022-111AL,2026-05-09T12:21:54.253728,15.37812167,.0007278,53.2282,215.4542,61.8497,298.3243,0,U,53807,999,20425,.127E-3,.4399E-4,0
YUNHAI-1 03,2022-115A,2026-05-09T21:59:18.314880,14.32691244,.0005292,98.5538,128.5507,146.9258,213.2258,0,U,53877,999,19003,.11225E-3,.262E-5,0
CENTISPACE-1 S5,2022-126A,2026-05-09T19:43:26.276160,14.62943776,.001205,55.0004,6.4775,355.2416,4.8462,0,U,54020,999,19142,.14668E-3,.568E-5,0
CENTISPACE-1 S6,2022-126B,2026-05-09T20:44:59.036352,14.62234635,.0013888,55.0007,7.9958,354.2372,5.8459,0,U,54021,999,19139,.12847E-3,.464E-5,0
OTB-3-GAZELLE,2022-127A,2026-05-09T20:15:58.415040,14.42660458,.0012116,98.3940,122.1351,308.1420,51.8678,0,U,54023,999,18883,.46341E-4,.111E-5,0
ASO-S,2022-129A,2026-05-09T20:55:14.028096,14.52042824,.001367,98.2758,135.5005,205.5216,154.5306,0,U,54029,999,18986,.40196E-4,.118E-5,0
HJ-2E,2022-132A,2026-05-09T21:21:33.704352,15.21745718,.0022081,97.3814,134.9746,139.8190,220.4683,0,U,54035,999,19859,.24818E-3,.5592E-4,0
COSMOS 2561,2022-137A,2026-05-09T20:14:22.148160,15.50736665,.0010735,96.9222,190.2963,157.7595,202.4126,0,U,54109,999,20040,.16984E-3,.9702E-4,0
GONETS-M 23,2022-139A,2026-05-09T20:46:40.232352,12.42889058,.0020881,82.5102,12.1104,307.6301,52.2883,0,U,54150,999,16088,.94465E-5,.11E-6,0
GONETS-M 24,2022-139B,2026-05-09T20:07:58.369728,12.42889699,.0016283,82.5004,11.2133,319.1816,40.8043,0,U,54151,999,16088,.16195E-3,.32E-6,0
GONETS-M 25,2022-139C,2026-05-09T19:48:18.861120,12.42888900,.0020178,82.5071,11.8871,316.8772,43.0727,0,U,54152,999,16088,.60777E-5,.11E-6,0
SKIF-D,2022-139D,2026-05-09T06:49:32.850336,5.00439038,.0007374,89.9558,96.6795,214.5123,145.4786,0,U,54153,999,6216,0,.4E-6,0
MATS,2022-147A,2026-05-09T18:11:56.726880,15.05113376,.0011801,97.6825,131.5291,336.7155,23.3535,0,U,54227,999,19198,.21862E-3,.3053E-4,0
JILIN-1 GAOFEN 03D54,2022-155D,2026-05-09T08:23:25.495296,15.82083291,.0002379,97.6094,277.8745,172.1569,187.9737,0,U,54254,999,19413,.59787E-3,.122982E-2,0
EOS-6 (OCEANSAT-3),2022-158A,2026-05-09T20:30:07.765920,14.47018172,.0002271,98.3516,228.5615,91.8582,268.2870,0,U,54361,999,18229,.64815E-4,.192E-5,0
DONGPO 09,2022-167D,2026-05-09T20:10:23.385216,15.35496365,.000128,97.6880,299.1697,239.4814,120.6302,0,U,54685,999,18956,.25238E-3,.862E-4,0
DONGPO 08,2022-167E,2026-05-09T21:15:15.075360,15.32904762,.0007033,97.6840,296.5735,307.7242,52.3361,0,U,54686,999,18945,.23715E-3,.7458E-4,0
2022-167F,2022-167F,2026-05-09T20:08:17.763936,15.80444153,.0003172,97.6177,313.4152,185.6041,174.5191,0,U,54687,999,19075,.55568E-3,.105816E-2,0
DONGPO 10,2022-167H,2026-05-09T20:19:24.289824,15.33682104,.0003995,97.6924,298.3945,240.9102,119.1740,0,U,54689,999,18948,.23697E-3,.7635E-4,0
JILIN-1 GAOFEN 03D48,2022-167P,2026-05-09T20:42:57.492288,15.34412900,.0005261,97.6856,297.7779,246.8552,113.2136,0,U,54695,999,18951,.24757E-3,.8169E-4,0
STAR VIBE,2023-001A,2026-05-09T19:40:32.706336,15.41580244,.0004437,97.3191,194.1559,241.3668,118.7132,0,U,55009,999,18631,.24434E-3,.1019E-3,0
BRO-8,2023-001C,2026-05-09T20:10:14.733120,15.46802561,.0004693,97.3236,194.5374,246.9415,113.1340,0,U,55011,999,18627,.43581E-3,.218E-3,0
CONNECTA T1.2,2023-001D,2026-05-09T17:45:35.562816,15.48020282,.0005723,97.3296,199.8263,218.3197,141.7648,0,U,55012,999,18659,.51006E-3,.2665E-3,0
