DONGPO 02               
1 53452U 22098J   26129.89619807  .00062120  00000+0  55759-3 0  9992
2 53452  97.5467 258.0007 0002656 129.1022 231.0475 15.68092828208783
DONGPO 01               
1 53453U 22098K   26129.84237850  .00057172  00000+0  54680-3 0  9995
2 53453  97.5533 258.5466 0000819 148.1143 212.0166 15.66539478208743
STARLINK-4400           
1 53468U 22099D   26129.83193605 -.00001918  00000+0 -12882-3 0  9997
2 53468  97.5129 250.2710 0000232 214.6120 145.5092 15.05658963205170
STARLINK-4621           
1 53676U 22105AE  26129.63533282 -.00002321  00000+0 -15676-3 0  9996
2 53676  97.5150  10.0898 0002662  73.4388 286.7131 15.05659322202405
SHERPA-LTC2             
1 53754U 22107BG  26129.41721472  .00005196  00000+0  26738-3 0  9993
2 53754  53.2342  24.3993 0397915 117.7277 246.4651 14.69151322196841
CENTISPACE-1 S3         
1 53757U 22108A   26129.83476358  .00000252  00000+0  88731-4 0  9993
2 53757  53.5325 213.8443 0008326 237.3020 122.7153 14.61217066195924
CENTISPACE-1 S4         
1 53758U 22108B   26129.76843120  .00000388  00000+0  11470-3 0  9996
2 53758  53.5300 211.8172 0008130 222.7642 137.2701 14.61889288195949
BLUEWALKER-3            
1 53807U 22111AL  26129.51521127  .00004399  00000+0  12700-3 0  9991
2 53807  53.2282 215.4542 0007278  61.8497 298.3243 15.37812167204254
YUNHAI-1 03             
1 53877U 22115A   26129.91618420  .00000262  00000+0  11225-3 0  9995
2 53877  98.5538 128.5507 0005292 146.9258 213.2258 14.32691244190033
CENTISPACE-1 S5         
1 54020U 22126A   26129.82183190  .00000568  00000+0  14668-3 0  9992
2 54020  55.0004   6.4775 0012050 355.2416   4.8462 14.62943776191420
CENTISPACE-1 S6         
1 54021U 22126B   26129.86457218  .00000464  00000+0  12847-3 0  9994
2 54021  55.0007   7.9958 0013888 354.2372   5.8459 14.62234635191393
OTB-3-GAZELLE           
1 54023U 22127A   26129.84442610  .00000111  00000+0  46341-4 0  9991
2 54023  98.3940 122.1351 0012116 308.1420  51.8678 14.42660458188836
ASO-S                   
1 54029U 22129A   26129.87169014  .00000118  00000+0  40196-4 0  9995
2 54029  98.2758 135.5005 0013670 205.5216 154.5306 14.52042824189866
HJ-2E                   
1 54035U 22132A   26129.88997343  .00005592  00000+0  24818-3 0  9994
2 54035  97.3814 134.9746 0022081 139.8190 220.4683 15.21745718198597
COSMOS 2561             
1 54109U 22137A   26129.84331190  .00009702  00000+0  16984-3 0  9991
2 54109  96.9222 190.2963 0010735 157.7595 202.4126 15.50736665200403
GONETS-M 23             
1 54150U 22139A   26129.86574343  .00000011  00000+0  94465-5 0  9996
2 54150  82.5102  12.1104 0020881 307.6301  52.2883 12.42889058160881
GONETS-M 24             
1 54151U 22139B   26129.83887002  .00000032  00000+0  16195-3 0  9998
2 54151  82.5004  11.2133 0016283 319.1816  40.8043 12.42889699160887
GONETS-M 25             
1 54152U 22139C   26129.82521830  .00000011  00000+0  60777-5 0  9996
2 54152  82.5071  11.8871 0020178 316.8772  43.0727 12.42888900160888
SKIF-D                  
1 54153U 22139D   26129.28440799  .00000040  00000+0  00000+0 0  9990
2 54153  89.9558  96.6795 0007374 214.5123 145.4786  5.00439038 62167
MATS                    
1 54227U 22147A   26129.75829545  .00003053  00000+0  21862-3 0  9993
2 54227  97.6825 131.5291 0011801 336.7155  23.3535 15.05113376191983
JILIN-1 GAOFEN 03D54    
1 54254U 22155D   26129.34960064  .00122982  00000+0  59787-3 0  9999
2 54254  97.6094 277.8745 0002379 172.1569 187.9737 15.82083291194138
EOS-6 (OCEANSAT-3)      
1 54361U 22158A   26129.85425655  .00000192  00000+0  64815-4 0  9996
2 54361  98.3516 228.5615 0002271  91.8582 268.2870 14.47018172182297
DONGPO 09               
1 54685U 22167D   26129.84054844  .00008620  00000+0  25238-3 0  9991
2 54685  97.6880 299.1697 0001280 239.4814 120.6302 15.35496365189563
DONGPO 08               
1 54686U 22167E   26129.88559115  .00007458  00000+0  23715-3 0  9993
2 54686  97.6840 296.5735 0007033 307.7242  52.3361 15.32904762189456
2022-167F               
1 54687U 22167F   26129.83909449  .00105816  00000+0  55568-3 0  9996
2 54687  97.6177 313.4152 0003172 185.6041 174.5191 15.80444153190751
DONGPO 10               
1 54689U 22167H   26129.84680891  .00007635  00000+0  23697-3 0  9994
2 54689  97.6924 298.3945 0003995 240.9102 119.1740 15.33682104189481
JILIN-1 GAOFEN 03D48    
1 54695U 22167P   26129.86316542  .00008169  00000+0  24757-3 0  9993
2 54695  97.6856 297.7779 0005261 246.8552 113.2136 15.34412900189516
STAR VIBE               
1 55009U 23001A   26129.81982299  .00010190  00000+0  24434-3 0  9993
2 55009  97.3191 194.1559 0004437 241.3668 118.7132 15.41580244186319
BRO-8                   
1 55011U 23001C   26129.84044830  .00021800  00000+0  43581-3 0  9993
2 55011  97.3236 194.5374 0004693 246.9415 113.1340 15.46802561186275
CONNECTA T1.2           
1 55012U 23001D   26129.73999494  .00026650  00000+0  51006-3 0  9996
2 55012  97.3296 199.8263 0005723 218.3197 141.7648 15.48020282186599
